[
  {
    "OBJECT_NAME": "STARLINK-2129",
    "OBJECT_ID": "2021-017F",
    "EPOCH": "2023-03-08T02:31:52.674528",
    "MEAN_MOTION": 15.06402067,
    "ECCENTRICITY": 0.0001027,
    "INCLINATION": 53.055,
    "RA_OF_ASC_NODE": 8.8692,
    "ARG_OF_PERICENTER": 101.0192,
    "MEAN_ANOMALY": 259.0913,
    "EPHEMERIS_TYPE": 0,
    "CLASSIFICATION_TYPE": "U",
    "NORAD_CAT_ID": 47727,
    "ELEMENT_SET_NO": 999,
    "REV_AT_EPOCH": 11292,
    "BSTAR": 0.00074197,
    "MEAN_MOTION_DOT": 0.00010788,
    "MEAN_MOTION_DDOT": 0
  },
  {
    "OBJECT_NAME": "STARLINK-2131",
    "OBJECT_ID": "2021-017G",
    "EPOCH": "2023-03-07T19:07:23.945952",
    "MEAN_MOTION": 15.06390134,
    "ECCENTRICITY": 0.0002432,
    "INCLINATION": 53.0528,
    "RA_OF_ASC_NODE": 90.246,
    "ARG_OF_PERICENTER": 95.8998,
    "MEAN_ANOMALY": 264.2268,
    "EPHEMERIS_TYPE": 0,
    "CLASSIFICATION_TYPE": "U",
    "NORAD_CAT_ID": 47728,
    "ELEMENT_SET_NO": 999,
    "REV_AT_EPOCH": 11244,
    "BSTAR": 0.0019772,
    "MEAN_MOTION_DOT": 0.00029285,
    "MEAN_MOTION_DDOT": 0
  },
  {
    "OBJECT_NAME": "STARLINK-2132",
    "OBJECT_ID": "2021-017H",
    "EPOCH": "2023-03-08T03:46:55.713792",
    "MEAN_MOTION": 15.06363159,
    "ECCENTRICITY": 9.4e-5,
    "INCLINATION": 53.0529,
    "RA_OF_ASC_NODE": 33.8363,
    "ARG_OF_PERICENTER": 60.5841,
    "MEAN_ANOMALY": 299.5241,
    "EPHEMERIS_TYPE": 0,
    "CLASSIFICATION_TYPE": "U",
    "NORAD_CAT_ID": 47729,
    "ELEMENT_SET_NO": 999,
    "REV_AT_EPOCH": 11259,
    "BSTAR": 0.0010299,
    "MEAN_MOTION_DOT": 0.00015077,
    "MEAN_MOTION_DDOT": 0
  },
  {
    "OBJECT_NAME": "STARLINK-2140",
    "OBJECT_ID": "2021-017J",
    "EPOCH": "2023-03-07T19:39:54.137376",
    "MEAN_MOTION": 15.06395715,
    "ECCENTRICITY": 0.0001628,
    "INCLINATION": 53.0549,
    "RA_OF_ASC_NODE": 105.162,
    "ARG_OF_PERICENTER": 88.8116,
    "MEAN_ANOMALY": 271.3059,
    "EPHEMERIS_TYPE": 0,
    "CLASSIFICATION_TYPE": "U",
    "NORAD_CAT_ID": 47730,
    "ELEMENT_SET_NO": 999,
    "REV_AT_EPOCH": 11218,
    "BSTAR": 0.00022749,
    "MEAN_MOTION_DOT": 3.108e-5,
    "MEAN_MOTION_DDOT": 0
  },
  {
    "OBJECT_NAME": "STARLINK-2141",
    "OBJECT_ID": "2021-017K",
    "EPOCH": "2023-03-07T19:48:31.565376",
    "MEAN_MOTION": 15.06390033,
    "ECCENTRICITY": 0.0001434,
    "INCLINATION": 53.0523,
    "RA_OF_ASC_NODE": 100.1198,
    "ARG_OF_PERICENTER": 94.8088,
    "MEAN_ANOMALY": 265.3065,
    "EPHEMERIS_TYPE": 0,
    "CLASSIFICATION_TYPE": "U",
    "NORAD_CAT_ID": 47731,
    "ELEMENT_SET_NO": 999,
    "REV_AT_EPOCH": 11226,
    "BSTAR": 0.00044859,
    "MEAN_MOTION_DOT": 6.405e-5,
    "MEAN_MOTION_DDOT": 0
  },
  {
    "OBJECT_NAME": "STARLINK-2142",
    "OBJECT_ID": "2021-017L",
    "EPOCH": "2023-03-08T03:07:07.446720",
    "MEAN_MOTION": 15.06337381,
    "ECCENTRICITY": 0.0001248,
    "INCLINATION": 53.055,
    "RA_OF_ASC_NODE": 13.9926,
    "ARG_OF_PERICENTER": 81.2859,
    "MEAN_ANOMALY": 278.8271,
    "EPHEMERIS_TYPE": 0,
    "CLASSIFICATION_TYPE": "U",
    "NORAD_CAT_ID": 47732,
    "ELEMENT_SET_NO": 999,
    "REV_AT_EPOCH": 11285,
    "BSTAR": 0.0030422,
    "MEAN_MOTION_DOT": 0.00045247,
    "MEAN_MOTION_DDOT": 0
  },
  {
    "OBJECT_NAME": "STARLINK-2143",
    "OBJECT_ID": "2021-017M",
    "EPOCH": "2023-03-07T19:31:16.958208",
    "MEAN_MOTION": 15.06365363,
    "ECCENTRICITY": 0.0002782,
    "INCLINATION": 53.0522,
    "RA_OF_ASC_NODE": 110.1721,
    "ARG_OF_PERICENTER": 81.5514,
    "MEAN_ANOMALY": 278.579,
    "EPHEMERIS_TYPE": 0,
    "CLASSIFICATION_TYPE": "U",
    "NORAD_CAT_ID": 47733,
    "ELEMENT_SET_NO": 999,
    "REV_AT_EPOCH": 11216,
    "BSTAR": 0.0019215,
    "MEAN_MOTION_DOT": 0.00028429,
    "MEAN_MOTION_DDOT": 0
  },
  {
    "OBJECT_NAME": "STARLINK-2144",
    "OBJECT_ID": "2021-017N",
    "EPOCH": "2023-03-07T13:36:58.583808",
    "MEAN_MOTION": 15.0640504,
    "ECCENTRICITY": 0.0001567,
    "INCLINATION": 53.0524,
    "RA_OF_ASC_NODE": 101.2756,
    "ARG_OF_PERICENTER": 120.7166,
    "MEAN_ANOMALY": 239.3977,
    "EPHEMERIS_TYPE": 0,
    "CLASSIFICATION_TYPE": "U",
    "NORAD_CAT_ID": 47734,
    "ELEMENT_SET_NO": 999,
    "REV_AT_EPOCH": 11223,
    "BSTAR": 0.00043028,
    "MEAN_MOTION_DOT": 6.134e-5,
    "MEAN_MOTION_DDOT": 0
  },
  {
    "OBJECT_NAME": "STARLINK-2146",
    "OBJECT_ID": "2021-017P",
    "EPOCH": "2023-03-08T04:20:05.383968",
    "MEAN_MOTION": 15.06413314,
    "ECCENTRICITY": 8.32e-5,
    "INCLINATION": 53.0534,
    "RA_OF_ASC_NODE": 23.6864,
    "ARG_OF_PERICENTER": 77.6742,
    "MEAN_ANOMALY": 282.434,
    "EPHEMERIS_TYPE": 0,
    "CLASSIFICATION_TYPE": "U",
    "NORAD_CAT_ID": 47735,
    "ELEMENT_SET_NO": 999,
    "REV_AT_EPOCH": 11272,
    "BSTAR": 0.0017309,
    "MEAN_MOTION_DOT": 0.00025604,
    "MEAN_MOTION_DDOT": 0
  },
  {
    "OBJECT_NAME": "STARLINK-2147",
    "OBJECT_ID": "2021-017Q",
    "EPOCH": "2023-03-08T01:34:51.581856",
    "MEAN_MOTION": 15.06396855,
    "ECCENTRICITY": 0.0001488,
    "INCLINATION": 53.0532,
    "RA_OF_ASC_NODE": 89.0421,
    "ARG_OF_PERICENTER": 90.5793,
    "MEAN_ANOMALY": 269.5367,
    "EPHEMERIS_TYPE": 0,
    "CLASSIFICATION_TYPE": "U",
    "NORAD_CAT_ID": 47736,
    "ELEMENT_SET_NO": 999,
    "REV_AT_EPOCH": 11180,
    "BSTAR": 0.00011114,
    "MEAN_MOTION_DOT": 1.374e-5,
    "MEAN_MOTION_DDOT": 0
  },
  {
    "OBJECT_NAME": "STARLINK-2148",
    "OBJECT_ID": "2021-017R",
    "EPOCH": "2023-03-08T01:37:43.809888",
    "MEAN_MOTION": 15.3574288,
    "ECCENTRICITY": 9.24e-5,
    "INCLINATION": 53.0549,
    "RA_OF_ASC_NODE": 315.7809,
    "ARG_OF_PERICENTER": 114.4444,
    "MEAN_ANOMALY": 245.6654,
    "EPHEMERIS_TYPE": 0,
    "CLASSIFICATION_TYPE": "U",
    "NORAD_CAT_ID": 47737,
    "ELEMENT_SET_NO": 999,
    "REV_AT_EPOCH": 11368,
    "BSTAR": 9.4423e-6,
    "MEAN_MOTION_DOT": -4.9e-7,
    "MEAN_MOTION_DDOT": 0
  },
  {
    "OBJECT_NAME": "STARLINK-2149",
    "OBJECT_ID": "2021-017S",
    "EPOCH": "2023-03-07T18:35:35.744928",
    "MEAN_MOTION": 15.0639468,
    "ECCENTRICITY": 0.0001336,
    "INCLINATION": 53.0559,
    "RA_OF_ASC_NODE": 90.6155,
    "ARG_OF_PERICENTER": 91.8516,
    "MEAN_ANOMALY": 268.2626,
    "EPHEMERIS_TYPE": 0,
    "CLASSIFICATION_TYPE": "U",
    "NORAD_CAT_ID": 47738,
    "ELEMENT_SET_NO": 999,
    "REV_AT_EPOCH": 11243,
    "BSTAR": 0.0012278,
    "MEAN_MOTION_DOT": 0.00018051,
    "MEAN_MOTION_DDOT": 0
  },
  {
    "OBJECT_NAME": "STARLINK-2150",
    "OBJECT_ID": "2021-017T",
    "EPOCH": "2023-03-07T20:42:15.745536",
    "MEAN_MOTION": 15.06405795,
    "ECCENTRICITY": 0.0001179,
    "INCLINATION": 53.0523,
    "RA_OF_ASC_NODE": 114.9545,
    "ARG_OF_PERICENTER": 102.7635,
    "MEAN_ANOMALY": 257.3486,
    "EPHEMERIS_TYPE": 0,
    "CLASSIFICATION_TYPE": "U",
    "NORAD_CAT_ID": 47739,
    "ELEMENT_SET_NO": 999,
    "REV_AT_EPOCH": 11142,
    "BSTAR": 0.0015823,
    "MEAN_MOTION_DOT": 0.00023369,
    "MEAN_MOTION_DDOT": 0
  },
  {
    "OBJECT_NAME": "STARLINK-2152",
    "OBJECT_ID": "2021-017U",
    "EPOCH": "2023-03-08T02:37:13.601280",
    "MEAN_MOTION": 15.06386435,
    "ECCENTRICITY": 0.0001544,
    "INCLINATION": 53.0521,
    "RA_OF_ASC_NODE": 98.846,
    "ARG_OF_PERICENTER": 114.9142,
    "MEAN_ANOMALY": 245.2008,
    "EPHEMERIS_TYPE": 0,
    "CLASSIFICATION_TYPE": "U",
    "NORAD_CAT_ID": 47740,
    "ELEMENT_SET_NO": 999,
    "REV_AT_EPOCH": 11166,
    "BSTAR": 0.0021083,
    "MEAN_MOTION_DOT": 0.0003125,
    "MEAN_MOTION_DDOT": 0
  },
  {
    "OBJECT_NAME": "STARLINK-2154",
    "OBJECT_ID": "2021-017V",
    "EPOCH": "2023-03-07T19:00:45.429408",
    "MEAN_MOTION": 15.06403807,
    "ECCENTRICITY": 0.0001575,
    "INCLINATION": 53.0527,
    "RA_OF_ASC_NODE": 100.2683,
    "ARG_OF_PERICENTER": 76.8238,
    "MEAN_ANOMALY": 283.2926,
    "EPHEMERIS_TYPE": 0,
    "CLASSIFICATION_TYPE": "U",
    "NORAD_CAT_ID": 47741,
    "ELEMENT_SET_NO": 999,
    "REV_AT_EPOCH": 11225,
    "BSTAR": 0.0014231,
    "MEAN_MOTION_DOT": 0.00020981,
    "MEAN_MOTION_DDOT": 0
  },
  {
    "OBJECT_NAME": "STARLINK-2156",
    "OBJECT_ID": "2021-017W",
    "EPOCH": "2023-03-07T12:55:50.483136",
    "MEAN_MOTION": 15.06404427,
    "ECCENTRICITY": 0.0001436,
    "INCLINATION": 53.0528,
    "RA_OF_ASC_NODE": 91.4052,
    "ARG_OF_PERICENTER": 100.6746,
    "MEAN_ANOMALY": 259.4405,
    "EPHEMERIS_TYPE": 0,
    "CLASSIFICATION_TYPE": "U",
    "NORAD_CAT_ID": 47742,
    "ELEMENT_SET_NO": 999,
    "REV_AT_EPOCH": 11240,
    "BSTAR": 0.0003461,
    "MEAN_MOTION_DOT": 4.878e-5,
    "MEAN_MOTION_DDOT": 0
  },
  {
    "OBJECT_NAME": "STARLINK-2157",
    "OBJECT_ID": "2021-017X",
    "EPOCH": "2023-03-08T00:41:46.903776",
    "MEAN_MOTION": 15.06394589,
    "ECCENTRICITY": 0.0001487,
    "INCLINATION": 53.0524,
    "RA_OF_ASC_NODE": 89.2083,
    "ARG_OF_PERICENTER": 108.9776,
    "MEAN_ANOMALY": 251.1374,
    "EPHEMERIS_TYPE": 0,
    "CLASSIFICATION_TYPE": "U",
    "NORAD_CAT_ID": 47743,
    "ELEMENT_SET_NO": 999,
    "REV_AT_EPOCH": 11179,
    "BSTAR": 0.0012075,
    "MEAN_MOTION_DOT": 0.00017747,
    "MEAN_MOTION_DDOT": 0
  },
  {
    "OBJECT_NAME": "STARLINK-2158",
    "OBJECT_ID": "2021-017Y",
    "EPOCH": "2023-03-08T01:38:47.942016",
    "MEAN_MOTION": 15.06394888,
    "ECCENTRICITY": 0.0001846,
    "INCLINATION": 53.0538,
    "RA_OF_ASC_NODE": 88.9869,
    "ARG_OF_PERICENTER": 73.1716,
    "MEAN_ANOMALY": 286.9475,
    "EPHEMERIS_TYPE": 0,
    "CLASSIFICATION_TYPE": "U",
    "NORAD_CAT_ID": 47744,
    "ELEMENT_SET_NO": 999,
    "REV_AT_EPOCH": 11180,
    "BSTAR": 0.00010331,
    "MEAN_MOTION_DOT": 1.257e-5,
    "MEAN_MOTION_DDOT": 0
  }
]
